*******************************************************************************
JPL/HORIZONS               3752 Camillo (1985 PA)          2023-Sep-04 11:25:20
Rec #:    3752 (+COV) Soln.date: 2023-Sep-01_05:54:47   # obs: 2650 (1976-2023)
 
IAU76/J2000 helio. ecliptic osc. elements (au, days, deg., period=Julian yrs):
 
  EPOCH=  2458086.5 ! 2017-Nov-29.00 (TDB)         Residual RMS= .26202
   EC= .30165209295169     QR= .9870532145879408   TP= 2458130.1514361636
   OM= 147.9761980728135   W=  312.2080140868429   IN= 55.55596439834478
   A= 1.413411860515047    MA= 334.3964896052955   ADIST= 1.839770506442153
   PER= 1.68039            N= .586544514           ANGMOM= .019498409
   DAN= 1.0683             DDN= 1.61135            L= 116.0287115
   B= -37.6508829          MOID= .0789601          TP= 2018-Jan-11.6514361636
 
Asteroid physical parameters (km, seconds, rotational period in hours):
   GM= n.a.                RAD= 1.153              ROTPER= 37.846
   H= 15.2                 G= .150                 B-V= n.a.
                           ALBEDO= .210            STYP= n.a.

ASTEROID comments: 
1: soln ref.= JPL#463, OCC=0           radar( 4 delay, 4 Dop.)
2: source=ORB
*******************************************************************************


*******************************************************************************
Ephemeris / API_USER Mon Sep  4 11:25:20 2023 Pasadena, USA      / Horizons
*******************************************************************************
Target body name: 3752 Camillo (1985 PA)          {source: JPL#463}
Center body name: Solar System Barycenter (0)     {source: DE441}
Center-site name: BODY CENTER
*******************************************************************************
Start time      : A.D. 2023-Aug-12 00:00:00.0000 TDB
Stop  time      : A.D. 2023-Aug-13 00:00:00.0000 TDB
Step-size       : 2880 minutes
*******************************************************************************
Center geodetic : 0.0, 0.0, 0.0                   {E-lon(deg),Lat(deg),Alt(km)}
Center cylindric: 0.0, 0.0, 0.0                   {E-lon(deg),Dxy(km),Dz(km)}
Center radii    : (undefined)
Small perturbers: Yes                             {source: SB441-N16}
Output units    : KM-S
Calendar mode   : Mixed Julian/Gregorian
Output type     : GEOMETRIC cartesian states
Output format   : 2 (position and velocity)
Reference frame : Ecliptic of J2000.0
*******************************************************************************
Initial IAU76/J2000 heliocentric ecliptic osculating elements (au, days, deg.):
  EPOCH=  2458086.5 ! 2017-Nov-29.00 (TDB)         Residual RMS= .26202        
   EC= .30165209295169     QR= .9870532145879408   TP= 2458130.1514361636      
   OM= 147.9761980728135   W=  312.2080140868429   IN= 55.55596439834478       
  Equivalent ICRF heliocentric cartesian coordinates (au, au/d):
   X= 4.013221953173639E-01  Y= 7.687137772895473E-01  Z=-6.218873668968496E-01
  VX=-1.619482309679268E-02 VY= 7.704539881511938E-03 VZ= 4.859250254874112E-03
Asteroid physical parameters (km, seconds, rotational period in hours):        
   GM= n.a.                RAD= 1.153              ROTPER= 37.846              
   H= 15.2                 G= .150                 B-V= n.a.                   
                           ALBEDO= .210            STYP= n.a.                  
*******************************************************************************
JDTDB
   X     Y     Z
   VX    VY    VZ
*******************************************************************************
$$SOE
2460168.500000000 = A.D. 2023-Aug-12 00:00:00.0000 TDB 
 X =-6.318831087325319E+07 Y =-1.289916502090067E+08 Z = 2.070283536079590E+08
 VX= 1.615919413825427E+01 VY=-1.257345786669836E+01 VZ= 3.028366149413804E+00
$$EOE
*******************************************************************************
 
TIME

  Barycentric Dynamical Time ("TDB" or T_eph) output was requested. This
continuous coordinate time is equivalent to the relativistic proper time
of a clock at rest in a reference frame co-moving with the solar system
barycenter but outside the system's gravity well. It is the independent
variable in the solar system relativistic equations of motion.

  TDB runs at a uniform rate of one SI second per second and is independent
of irregularities in Earth's rotation.
 
CALENDAR SYSTEM

  Mixed calendar mode was active such that calendar dates after AD 1582-Oct-15
(if any) are in the modern Gregorian system. Dates prior to 1582-Oct-5 (if any)
are in the Julian calendar system, which is automatically extended for dates
prior to its adoption on 45-Jan-1 BC.  The Julian calendar is useful for
matching historical dates. The Gregorian calendar more accurately corresponds
to the Earth's orbital motion and seasons. A "Gregorian-only" calendar mode is
available if such physical events are the primary interest.

REFERENCE FRAME AND COORDINATES

  Ecliptic at the standard reference epoch

    Reference epoch: J2000.0
    X-Y plane: adopted Earth orbital plane at the reference epoch
               Note: IAU76 obliquity of 84381.448 arcseconds wrt ICRF X-Y plane
    X-axis   : ICRF
    Z-axis   : perpendicular to the X-Y plane in the directional (+ or -) sense
               of Earth's north pole at the reference epoch.

  Symbol meaning:

    JDTDB    Julian Day Number, Barycentric Dynamical Time
      X      X-component of position vector (km)
      Y      Y-component of position vector (km)
      Z      Z-component of position vector (km)
      VX     X-component of velocity vector (km/sec)                           
      VY     Y-component of velocity vector (km/sec)                           
      VZ     Z-component of velocity vector (km/sec)                           

ABERRATIONS AND CORRECTIONS

 Geometric state vectors have NO corrections or aberrations applied.

Computations by ...

    Solar System Dynamics Group, Horizons On-Line Ephemeris System
    4800 Oak Grove Drive, Jet Propulsion Laboratory
    Pasadena, CA  91109   USA

    General site: https://ssd.jpl.nasa.gov/
    Mailing list: https://ssd.jpl.nasa.gov/email_list.html
    System news : https://ssd.jpl.nasa.gov/horizons/news.html
    User Guide  : https://ssd.jpl.nasa.gov/horizons/manual.html
    Connect     : browser        https://ssd.jpl.nasa.gov/horizons/app.html#/x
                  API            https://ssd-api.jpl.nasa.gov/doc/horizons.html
                  command-line   telnet ssd.jpl.nasa.gov 6775
                  e-mail/batch   https://ssd.jpl.nasa.gov/ftp/ssd/hrzn_batch.txt
                  scripts        https://ssd.jpl.nasa.gov/ftp/ssd/SCRIPTS
    Author      : Jon.D.Giorgini@jpl.nasa.gov
*******************************************************************************
